OBJECT_NAME,OBJECT_ID,EPOCH,MEAN_MOTION,ECCENTRICITY,INCLINATION,RA_OF_ASC_NODE,ARG_OF_PERICENTER,MEAN_ANOMALY,EPHEMERIS_TYPE,CLASSIFICATION_TYPE,NORAD_CAT_ID,ELEMENT_SET_NO,REV_AT_EPOCH,BSTAR,MEAN_MOTION_DOT,MEAN_MOTION_DDOT
STARLINK-37235,2026-111G,2026-06-18T22:10:34.800960,15.49333088,.00018,53.1600,145.2589,87.0802,273.0413,0,U,69154,999,450,.76621E-3,.42434E-3,0
STARLINK-37329,2026-111H,2026-06-19T14:00:01.999872,15.49215499,.0001841,53.1598,140.4270,76.0972,112.0777,0,U,69155,999,593,-.53913205E-1,-.2632176E-1,0
STARLINK-37345,2026-111J,2026-06-19T14:00:01.999872,15.47238850,.00016835,53.1607,140.3441,96.7112,132.0518,0,U,69156,999,593,-.56611262E-1,-.2583975E-1,0
STARLINK-37353,2026-111K,2026-06-19T14:00:01.999872,15.47644919,.00013672,53.1596,140.3271,93.2718,143.1462,0,U,69157,999,593,-.54512685E-1,-.2530636E-1,0
STARLINK-37363,2026-111L,2026-06-19T14:00:01.999872,15.49055838,.00021752,53.1600,140.3309,74.8432,160.4375,0,U,69158,999,593,-.51803604E-1,-.2528723E-1,0
STARLINK-37343,2026-111M,2026-06-19T14:00:01.999872,15.49305097,.00012219,53.1591,141.8647,98.3365,100.0131,0,U,69159,999,593,-.15728164E-3,-.9184E-4,0
STARLINK-37328,2026-111N,2026-06-19T14:00:01.999872,15.48864654,.00014727,53.1603,140.2798,108.0217,152.0957,0,U,69160,999,593,-.51657527E-1,-.2506747E-1,0
STARLINK-37311,2026-111P,2026-06-19T14:00:01.999872,15.51255502,.00016015,53.1596,140.3082,95.2320,151.9265,0,U,69161,999,593,-.47806232E-1,-.252469E-1,0
STARLINK-36286,2026-111Q,2026-06-19T14:00:01.999872,15.49297408,.00017229,53.1601,140.7723,98.8181,279.1264,0,U,69162,999,593,.20371302E-3,.10892E-3,0
STARLINK-37196,2026-111R,2026-06-19T14:00:01.999872,15.52344546,.00012627,53.1603,140.2943,100.6146,153.6283,0,U,69163,999,593,-.47854312E-1,-.2616269E-1,0
STARLINK-36288,2026-111S,2026-06-19T14:00:01.999872,15.49300422,.00009818,53.1600,140.7427,89.1632,303.2891,0,U,69164,999,593,.7534991E-5,-.29E-6,0
STARLINK-37445,2026-111T,2026-06-19T14:00:01.999872,15.49306568,.00010912,53.1602,140.8466,75.7698,265.4137,0,U,69165,999,593,-.35347983E-4,-.2413E-4,0
STARLINK-37491,2026-111U,2026-06-19T14:00:01.999872,15.49303801,.00010462,53.1596,140.5080,83.7990,64.5721,0,U,69166,999,593,-.27711761E-4,-.1989E-4,0
STARLINK-37474,2026-111V,2026-06-19T14:00:01.999872,15.53906141,.00013241,53.1592,140.2811,108.0276,152.3151,0,U,69167,999,593,-.43479689E-1,-.2528299E-1,0
STARLINK-37469,2026-111W,2026-06-19T05:48:43.633152,15.49325669,.00012998,53.1603,143.6864,84.1402,275.9755,0,U,69168,999,455,.7383267E-3,.40853E-3,0
STARLINK-37515,2026-111X,2026-06-19T14:00:01.999872,15.49304920,.00011806,53.1596,140.5990,93.8300,9.0767,0,U,69169,999,593,-.23976557E-4,-.1781E-4,0
STARLINK-37437,2026-111Y,2026-06-19T14:00:01.999872,15.49298793,.00007321,53.1596,140.4101,61.0167,134.7336,0,U,69170,999,593,-.11594484E-3,-.6888E-4,0
STARLINK-37392,2026-111Z,2026-06-19T14:00:01.999872,15.49303722,.00011002,53.1598,140.4947,99.4394,54.0512,0,U,69171,999,593,-.9854165E-5,-.996E-5,0
STARLINK-37472,2026-111AA,2026-06-19T05:15:18.764352,15.49330241,.00004465,53.1594,142.8021,96.9664,263.1396,0,U,69172,999,456,.90875635E-3,.50458E-3,0
STARLINK-37461,2026-111AB,2026-06-19T02:31:15.422304,15.49339994,.00009207,53.1599,144.2482,73.8184,286.2927,0,U,69173,999,453,.73076807E-3,.40449E-3,0
STARLINK-37333,2026-111AC,2026-06-19T14:00:01.999872,15.49339522,.00006311,53.1602,140.7658,77.4592,302.9410,0,U,69174,999,593,.42035561E-3,.23024E-3,0
STARLINK-37385,2026-111AD,2026-06-19T08:31:46.158240,15.49345453,.00006276,53.1598,142.9644,91.7820,268.3261,0,U,69175,999,457,.11664282E-2,.65049E-3,0
STARLINK-37414,2026-111AE,2026-06-19T14:00:01.999872,15.49300850,.00014976,53.1594,140.5713,103.8561,11.7729,0,U,69176,999,593,-.19553114E-4,-.1535E-4,0
STRIX-7,2026-112A,2026-06-19T12:01:32.194848,15.01442483,.00230827,44.9068,180.2961,60.5493,299.7678,0,U,69177,999,422,.12583876E-3,.1424E-4,0
SHENZHOU-23 (SZ-23),2026-113A,2026-06-19T12:52:24.981600,15.60899851,.00073639,41.4696,307.7047,97.4720,262.6956,0,U,69180,999,29364,.2264613E-3,.19225E-3,0
STARLINK-37380,2026-114A,2026-06-19T07:25:41.357280,15.78096568,.00008978,53.1573,191.9170,60.5184,299.5927,0,U,69182,999,510,.87980342E-3,.155183E-2,0
STARLINK-37089,2026-114B,2026-06-19T13:29:07.815264,15.78117732,.00018214,53.1573,190.6452,145.5304,214.5836,0,U,69183,999,514,.12147299E-2,.216276E-2,0
STARLINK-37428,2026-114C,2026-06-19T07:22:19.050816,15.78118730,.00008953,53.1574,191.9018,84.4932,275.6191,0,U,69184,999,510,.12307353E-2,.219219E-2,0
STARLINK-37237,2026-114D,2026-06-19T13:23:15.933120,15.77904777,.00043549,53.1570,190.6189,326.4394,33.6351,0,U,69185,999,514,.10656175E-2,.187265E-2,0
