STARLINK-37235          
1 69154U 26111G   26169.92401390  .00042434  00000+0  76621-3 0  9999
2 69154  53.1600 145.2589 0001800  87.0802 273.0413 15.49333088  4503
STARLINK-37329          
1 69155U 26111H   26170.58335648 -.02632176  00000+0 -53913-1 0  9995
2 69155  53.1598 140.4270 0001841  76.0972 112.0777 15.49215499  5933
STARLINK-37345          
1 69156U 26111J   26170.58335648 -.02583975  00000+0 -56611-1 0  9996
2 69156  53.1607 140.3441 0001683  96.7112 132.0518 15.47238850  5932
STARLINK-37353          
1 69157U 26111K   26170.58335648 -.02530636  00000+0 -54513-1 0  9992
2 69157  53.1596 140.3271 0001367  93.2718 143.1462 15.47644919  5932
STARLINK-37363          
1 69158U 26111L   26170.58335648 -.02528723  00000+0 -51804-1 0  9997
2 69158  53.1600 140.3309 0002175  74.8432 160.4375 15.49055838  5930
STARLINK-37343          
1 69159U 26111M   26170.58335648 -.00009184  00000+0 -15728-3 0  9998
2 69159  53.1591 141.8647 0001221  98.3365 100.0131 15.49305097  5933
STARLINK-37328          
1 69160U 26111N   26170.58335648 -.02506747  00000+0 -51658-1 0  9999
2 69160  53.1603 140.2798 0001472 108.0217 152.0957 15.48864654  5933
STARLINK-37311          
1 69161U 26111P   26170.58335648 -.02524690  00000+0 -47806-1 0  9997
2 69161  53.1596 140.3082 0001601  95.2320 151.9265 15.51255502  5938
STARLINK-36286          
1 69162U 26111Q   26170.58335648  .00010892  00000+0  20371-3 0  9998
2 69162  53.1601 140.7723 0001722  98.8181 279.1264 15.49297408  5930
STARLINK-37196          
1 69163U 26111R   26170.58335648 -.02616269  00000+0 -47854-1 0  9996
2 69163  53.1603 140.2943 0001262 100.6146 153.6283 15.52344546  5931
STARLINK-36288          
1 69164U 26111S   26170.58335648 -.00000029  00000+0  75350-5 0  9991
2 69164  53.1600 140.7427 0000981  89.1632 303.2891 15.49300422  5938
STARLINK-37445          
1 69165U 26111T   26170.58335648 -.00002413  00000+0 -35348-4 0  9994
2 69165  53.1602 140.8466 0001091  75.7698 265.4137 15.49306568  5930
STARLINK-37491          
1 69166U 26111U   26170.58335648 -.00001989  00000+0 -27712-4 0  9998
2 69166  53.1596 140.5080 0001046  83.7990  64.5721 15.49303801  5930
STARLINK-37474          
1 69167U 26111V   26170.58335648 -.02528299  00000+0 -43480-1 0  9996
2 69167  53.1592 140.2811 0001324 108.0276 152.3151 15.53906141  5937
STARLINK-37469          
1 69168U 26111W   26170.24217168  .00040853  00000+0  73833-3 0  9994
2 69168  53.1603 143.6864 0001299  84.1402 275.9755 15.49325669  4556
STARLINK-37515          
1 69169U 26111X   26170.58335648 -.00001781  00000+0 -23977-4 0  9990
2 69169  53.1596 140.5990 0001180  93.8300   9.0767 15.49304920  5936
STARLINK-37437          
1 69170U 26111Y   26170.58335648 -.00006888  00000+0 -11594-3 0  9996
2 69170  53.1596 140.4101 0000732  61.0167 134.7336 15.49298793  5939
STARLINK-37392          
1 69171U 26111Z   26170.58335648 -.00000996  00000+0 -98542-5 0  9991
2 69171  53.1598 140.4947 0001100  99.4394  54.0512 15.49303722  5936
STARLINK-37472          
1 69172U 26111AA  26170.21896718  .00050458  00000+0  90876-3 0  9998
2 69172  53.1594 142.8021 0000446  96.9664 263.1396 15.49330241  4563
STARLINK-37461          
1 69173U 26111AB  26170.10503961  .00040449  00000+0  73077-3 0  9995
2 69173  53.1599 144.2482 0000920  73.8184 286.2927 15.49339994  4531
STARLINK-37333          
1 69174U 26111AC  26170.58335648  .00023024  00000+0  42036-3 0  9994
2 69174  53.1602 140.7658 0000631  77.4592 302.9410 15.49339522  5930
STARLINK-37385          
1 69175U 26111AD  26170.35539535  .00065049  00000+0  11664-2 0  9996
2 69175  53.1598 142.9644 0000627  91.7820 268.3261 15.49345453  4570
STARLINK-37414          
1 69176U 26111AE  26170.58335648 -.00001535  00000+0 -19553-4 0  9990
2 69176  53.1594 140.5713 0001497 103.8561  11.7729 15.49300850  5933
STRIX-7                 
1 69177U 26112A   26170.50106707  .00001424  00000+0  12584-3 0  9997
2 69177  44.9068 180.2961 0023082  60.5493 299.7678 15.01442483  4220
SHENZHOU-23 (SZ-23)     
1 69180U 26113A   26170.53640025  .00019225  00000+0  22646-3 0  9999
2 69180  41.4696 307.7047 0007363  97.4720 262.6956 15.60899851293644
STARLINK-37380          
1 69182U 26114A   26170.30950645  .00155183  00000+0  87980-3 0  9995
2 69182  53.1573 191.9170 0000897  60.5184 299.5927 15.78096568  5102
STARLINK-37089          
1 69183U 26114B   26170.56189601  .00216276  00000+0  12147-2 0  9993
2 69183  53.1573 190.6452 0001821 145.5304 214.5836 15.78117732  5145
STARLINK-37428          
1 69184U 26114C   26170.30716494  .00219219  00000+0  12307-2 0  9990
2 69184  53.1574 191.9018 0000895  84.4932 275.6191 15.78118730  5104
STARLINK-37237          
1 69185U 26114D   26170.55782330  .00187265  00000+0  10656-2 0  9990
2 69185  53.1570 190.6189 0004354 326.4394  33.6351 15.77904777  5148
